start=new Date('2023-01-06T00:00:00.000Z').valueOf();
sats=[{"LAUNCH_DATE":"2022-02-25","SEMIMAJOR_AXIS":"6917.834","RA_OF_ASC_NODE":"142.3299","OBJECT_NAME":"STARLINK-3607","MEAN_ANOMALY":"308.9080","EPOCH":"2023-01-05T15:11:31.764192","MEAN_ELEMENT_THEORY":"SGP4","DECAY_DATE":null,"SITE":"AFWTR","TLE_LINE1":"1 51809U 22017AT  23005.63300653  .00005081  00000-0  33696-3 0  9995","MEAN_MOTION_DDOT":"0.0000000000000","NORAD_CAT_ID":"51809","MEAN_MOTION_DOT":"0.00005081","INCLINATION":"53.2146","TLE_LINE2":"2 51809  53.2146 142.3299 0002769  51.2159 308.9080 15.08855134 49082","TIME_SYSTEM":"UTC","FILE":"3732963","ARG_OF_PERICENTER":"51.2159","REV_AT_EPOCH":"4908","OBJECT_ID":"2022-017AT","RCS_SIZE":"LARGE","CLASSIFICATION_TYPE":"U","GP_ID":"222290553","BSTAR":"0.00033696000000","ELEMENT_SET_NO":"999","CENTER_NAME":"EARTH","REF_FRAME":"TEME","MEAN_MOTION":"15.08855134","APOAPSIS":"541.615","COUNTRY_CODE":"US","EPHEMERIS_TYPE":"0","OBJECT_TYPE":"PAYLOAD","PERIOD":"95.437","PERIAPSIS":"537.784","ECCENTRICITY":"0.00027690"},{"TIME_SYSTEM":"UTC","FILE":"3732963","ARG_OF_PERICENTER":"34.1387","REV_AT_EPOCH":"4910","OBJECT_ID":"2022-017AU","INCLINATION":"53.2157","TLE_LINE2":"2 51810  53.2157 132.2777 0002924  34.1387 325.9793 15.08856455 49101","SITE":"AFWTR","TLE_LINE1":"1 51810U 22017AU  23005.64592219  .00001948  00000-0  14044-3 0  9993","MEAN_MOTION_DDOT":"0.0000000000000","NORAD_CAT_ID":"51810","MEAN_MOTION_DOT":"0.00001948","RA_OF_ASC_NODE":"132.2777","LAUNCH_DATE":"2022-02-25","SEMIMAJOR_AXIS":"6917.830","OBJECT_NAME":"STARLINK-3613","MEAN_ANOMALY":"325.9793","EPOCH":"2023-01-05T15:30:07.677216","MEAN_ELEMENT_THEORY":"SGP4","DECAY_DATE":null,"PERIOD":"95.437","PERIAPSIS":"537.672","ECCENTRICITY":"0.00029240","MEAN_MOTION":"15.08856455","APOAPSIS":"541.718","COUNTRY_CODE":"US","OBJECT_TYPE":"PAYLOAD","EPHEMERIS_TYPE":"0","GP_ID":"222289807","ELEMENT_SET_NO":"999","BSTAR":"0.00014044000000","CENTER_NAME":"EARTH","REF_FRAME":"TEME","RCS_SIZE":"LARGE","CLASSIFICATION_TYPE":"U"},{"TLE_LINE2":"2 51811  53.2140 142.9578 0002857  43.1293 316.9922 15.08860751 48963","INCLINATION":"53.2140","FILE":"3732939","ARG_OF_PERICENTER":"43.1293","TIME_SYSTEM":"UTC","OBJECT_ID":"2022-017AV","REV_AT_EPOCH":"4896","OBJECT_NAME":"STARLINK-3569","SEMIMAJOR_AXIS":"6917.817","LAUNCH_DATE":"2022-02-25","RA_OF_ASC_NODE":"142.9578","MEAN_ANOMALY":"316.9922","DECAY_DATE":null,"EPOCH":"2023-01-05T11:50:09.768768","MEAN_ELEMENT_THEORY":"SGP4","SITE":"AFWTR","MEAN_MOTION_DDOT":"0.0000000000000","TLE_LINE1":"1 51811U 22017AV  23005.49316862  .00005832  00000-0  38398-3 0  9999","NORAD_CAT_ID":"51811","MEAN_MOTION_DOT":"0.00005832","APOAPSIS":"541.658","MEAN_MOTION":"15.08860751","COUNTRY_CODE":"US","EPHEMERIS_TYPE":"0","OBJECT_TYPE":"PAYLOAD","PERIAPSIS":"537.706","PERIOD":"95.436","ECCENTRICITY":"0.00028570","RCS_SIZE":"LARGE","CLASSIFICATION_TYPE":"U","GP_ID":"222264102","ELEMENT_SET_NO":"999","BSTAR":"0.00038398000000","REF_FRAME":"TEME","CENTER_NAME":"EARTH"},{"TLE_LINE2":"2 51812  53.2178 132.9246 0003313  45.3177 314.8085 15.08847590 49086","INCLINATION":"53.2178","OBJECT_ID":"2022-017AW","REV_AT_EPOCH":"4908","FILE":"3732939","ARG_OF_PERICENTER":"45.3177","TIME_SYSTEM":"UTC","DECAY_DATE":null,"MEAN_ELEMENT_THEORY":"SGP4","EPOCH":"2023-01-05T12:02:05.091648","MEAN_ANOMALY":"314.8085","OBJECT_NAME":"STARLINK-3610","LAUNCH_DATE":"2022-02-25","RA_OF_ASC_NODE":"132.9246","SEMIMAJOR_AXIS":"6917.857","MEAN_MOTION_DOT":"0.00000945","NORAD_CAT_ID":"51812","MEAN_MOTION_DDOT":"0.0000000000000","TLE_LINE1":"1 51812U 22017AW  23005.50144782  .00000945  00000-0  77459-4 0  9994","SITE":"AFWTR","EPHEMERIS_TYPE":"0","OBJECT_TYPE":"PAYLOAD","COUNTRY_CODE":"US","APOAPSIS":"542.014","MEAN_MOTION":"15.08847590","ECCENTRICITY":"0.00033130","PERIAPSIS":"537.430","PERIOD":"95.437","CLASSIFICATION_TYPE":"U","RCS_SIZE":"LARGE","REF_FRAME":"TEME","CENTER_NAME":"EARTH","BSTAR":"0.00007745900000","ELEMENT_SET_NO":"999","GP_ID":"222263355"},{"RCS_SIZE":"LARGE","CLASSIFICATION_TYPE":"U","ELEMENT_SET_NO":"999","BSTAR":"0.00023774000000","CENTER_NAME":"EARTH","REF_FRAME":"TEME","GP_ID":"222291053","EPHEMERIS_TYPE":"0","OBJECT_TYPE":"PAYLOAD","MEAN_MOTION":"15.08849269","APOAPSIS":"541.676","COUNTRY_CODE":"US","ECCENTRICITY":"0.00028310","PERIOD":"95.437","PERIAPSIS":"537.759","MEAN_ELEMENT_THEORY":"SGP4","EPOCH":"2023-01-05T17:53:12.551424","DECAY_DATE":null,"LAUNCH_DATE":"2022-02-25","RA_OF_ASC_NODE":"131.8316","SEMIMAJOR_AXIS":"6917.852","OBJECT_NAME":"STARLINK-3552","MEAN_ANOMALY":"318.2995","NORAD_CAT_ID":"51813","MEAN_MOTION_DOT":"0.00003498","SITE":"AFWTR","TLE_LINE1":"1 51813U 22017AX  23005.74528416  .00003498  00000-0  23774-3 0  9997","MEAN_MOTION_DDOT":"0.0000000000000","INCLINATION":"53.2167","TLE_LINE2":"2 51813  53.2167 131.8316 0002831  41.8213 318.2995 15.08849269 49125","TIME_SYSTEM":"UTC","ARG_OF_PERICENTER":"41.8213","FILE":"3732963","REV_AT_EPOCH":"4912","OBJECT_ID":"2022-017AX"},{"GP_ID":"222289307","BSTAR":"0.00020372000000","ELEMENT_SET_NO":"999","CENTER_NAME":"EARTH","REF_FRAME":"TEME","RCS_SIZE":"LARGE","CLASSIFICATION_TYPE":"U","PERIOD":"95.437","PERIAPSIS":"538.133","ECCENTRICITY":"0.00022790","MEAN_MOTION":"15.08851835","APOAPSIS":"541.286","COUNTRY_CODE":"US","EPHEMERIS_TYPE":"0","OBJECT_TYPE":"PAYLOAD","SITE":"AFWTR","TLE_LINE1":"1 51814U 22017AY  23005.62655812  .00002956  00000-0  20372-3 0  9995","MEAN_MOTION_DDOT":"0.0000000000000","NORAD_CAT_ID":"51814","MEAN_MOTION_DOT":"0.00002956","LAUNCH_DATE":"2022-02-25","SEMIMAJOR_AXIS":"6917.844","RA_OF_ASC_NODE":"132.3729","OBJECT_NAME":"STARLINK-3599","MEAN_ANOMALY":"324.3981","EPOCH":"2023-01-05T15:02:14.621568","MEAN_ELEMENT_THEORY":"SGP4","DECAY_DATE":null,"TIME_SYSTEM":"UTC","ARG_OF_PERICENTER":"35.7163","FILE":"3732963","REV_AT_EPOCH":"4910","OBJECT_ID":"2022-017AY","INCLINATION":"53.2185","TLE_LINE2":"2 51814  53.2185 132.3729 0002279  35.7163 324.3981 15.08851835 49105"},{"TLE_LINE2":"2 51815  53.2175 133.5410 0001656  43.8047 316.3076 15.08873161 49061","INCLINATION":"53.2175","OBJECT_ID":"2022-017AZ","REV_AT_EPOCH":"4906","FILE":"3732939","ARG_OF_PERICENTER":"43.8047","TIME_SYSTEM":"UTC","MEAN_ANOMALY":"316.3076","OBJECT_NAME":"STARLINK-3604","LAUNCH_DATE":"2022-02-25","RA_OF_ASC_NODE":"133.5410","SEMIMAJOR_AXIS":"6917.779","DECAY_DATE":null,"EPOCH":"2023-01-05T08:45:59.591520","MEAN_ELEMENT_THEORY":"SGP4","MEAN_MOTION_DDOT":"0.0000000000000","TLE_LINE1":"1 51815U 22017AZ  23005.36527305 -.00002202  00000-0 -12020-3 0  9999","SITE":"AFWTR","MEAN_MOTION_DOT":"-0.00002202","NORAD_CAT_ID":"51815","COUNTRY_CODE":"US","APOAPSIS":"540.790","MEAN_MOTION":"15.08873161","OBJECT_TYPE":"PAYLOAD","EPHEMERIS_TYPE":"0","PERIAPSIS":"538.498","PERIOD":"95.435","ECCENTRICITY":"0.00016560","CLASSIFICATION_TYPE":"U","RCS_SIZE":"LARGE","GP_ID":"222264603","REF_FRAME":"TEME","CENTER_NAME":"EARTH","BSTAR":"-0.00012020000000","ELEMENT_SET_NO":"999"},{"TLE_LINE2":"2 51816  53.2142 132.3786 0002213  44.0822 316.0346 15.08846236 49153","INCLINATION":"53.2142","ARG_OF_PERICENTER":"44.0822","FILE":"3732939","TIME_SYSTEM":"UTC","OBJECT_ID":"2022-017BA","REV_AT_EPOCH":"4915","OBJECT_NAME":"STARLINK-3603","LAUNCH_DATE":"2022-02-25","SEMIMAJOR_AXIS":"6917.861","RA_OF_ASC_NODE":"132.3786","MEAN_ANOMALY":"316.0346","DECAY_DATE":null,"MEAN_ELEMENT_THEORY":"SGP4","EPOCH":"2023-01-05T14:56:56.953824","SITE":"AFWTR","MEAN_MOTION_DDOT":"0.0000000000000","TLE_LINE1":"1 51816U 22017BA  23005.62288141  .00001672  00000-0  12312-3 0  9993","NORAD_CAT_ID":"51816","MEAN_MOTION_DOT":"0.00001672","APOAPSIS":"541.257","MEAN_MOTION":"15.08846236","COUNTRY_CODE":"US","OBJECT_TYPE":"PAYLOAD","EPHEMERIS_TYPE":"0","PERIAPSIS":"538.195","PERIOD":"95.437","ECCENTRICITY":"0.00022130","RCS_SIZE":"MEDIUM","CLASSIFICATION_TYPE":"U","GP_ID":"222262855","BSTAR":"0.00012312000000","ELEMENT_SET_NO":"999","REF_FRAME":"TEME","CENTER_NAME":"EARTH"},{"COUNTRY_CODE":"US","MEAN_MOTION":"15.76738402","APOAPSIS":"344.338","OBJECT_TYPE":"PAYLOAD","EPHEMERIS_TYPE":"0","PERIOD":"91.328","PERIAPSIS":"335.044","ECCENTRICITY":"0.00069170","CLASSIFICATION_TYPE":"U","RCS_SIZE":"LARGE","GP_ID":"222290554","CENTER_NAME":"EARTH","REF_FRAME":"TEME","BSTAR":"0.00001112200000","ELEMENT_SET_NO":"999","INCLINATION":"53.1975","TLE_LINE2":"2 51817  53.1975  18.1789 0006917 294.9080  65.1223 15.76738402 50819","REV_AT_EPOCH":"5081","OBJECT_ID":"2022-017BB","TIME_SYSTEM":"UTC","ARG_OF_PERICENTER":"294.9080","FILE":"3732963","MEAN_ANOMALY":"65.1223","SEMIMAJOR_AXIS":"6717.826","LAUNCH_DATE":"2022-02-25","RA_OF_ASC_NODE":"18.1789","OBJECT_NAME":"STARLINK-3596","EPOCH":"2023-01-05T18:04:06.143232","MEAN_ELEMENT_THEORY":"SGP4","DECAY_DATE":null,"TLE_LINE1":"1 51817U 22017BB  23005.75284888  .00001158  00000-0  11122-4 0  9990","MEAN_MOTION_DDOT":"0.0000000000000","SITE":"AFWTR","MEAN_MOTION_DOT":"0.00001158","NORAD_CAT_ID":"51817"},{"OBJECT_NAME":"STARLINK-3542","LAUNCH_DATE":"2022-03-03","RA_OF_ASC_NODE":"181.6522","SEMIMAJOR_AXIS":"6917.918","MEAN_ANOMALY":"312.1160","DECAY_DATE":null,"MEAN_ELEMENT_THEORY":"SGP4","EPOCH":"2023-01-05T18:48:50.621472","SITE":"AFETR","MEAN_MOTION_DDOT":"0.0000000000000","TLE_LINE1":"1 51852U 22022A   23005.78391923 -.00000209  00000-0  50341-5 0  9991","NORAD_CAT_ID":"51852","MEAN_MOTION_DOT":"-0.00000209","TLE_LINE2":"2 51852  53.2171 181.6522 0002897  48.0079 312.1160 15.08827669 46805","INCLINATION":"53.2171","FILE":"3732963","ARG_OF_PERICENTER":"48.0079","TIME_SYSTEM":"UTC","OBJECT_ID":"2022-022A","REV_AT_EPOCH":"4680","RCS_SIZE":"LARGE","CLASSIFICATION_TYPE":"U","GP_ID":"222289561","BSTAR":"0.00000503410000","ELEMENT_SET_NO":"999","REF_FRAME":"TEME","CENTER_NAME":"EARTH","APOAPSIS":"541.787","MEAN_MOTION":"15.08827669","COUNTRY_CODE":"US","OBJECT_TYPE":"PAYLOAD","EPHEMERIS_TYPE":"0","PERIAPSIS":"537.779","PERIOD":"95.438","ECCENTRICITY":"0.00028970"}];
